SL-4 R/B                
1 39679U 14021B   26048.43158581  .00014008  00000+0  31606-3 0  9998
2 39679  51.6060  76.0523 0098894  29.1592 331.4863 15.38479654653153
ALOS-2                  
1 39766U 14029A   26048.83483216  .00000651  00000+0  94025-4 0  9997
2 39766  97.9212 147.7185 0001573 100.6444 259.4944 14.79469369633930
YAOGAN-29               
1 41038U 15069A   26048.89003248  .00000368  00000+0  51964-4 0  9996
2 41038  98.0164  77.2642 0002750  69.3779 290.7728 14.82971003552944
ASTRO-H (HITOMI)        
1 41337U 16012A   26048.47173619  .00003581  00000+0  21002-3 0  9990
2 41337  30.9990 127.0023 0009876 129.7747 230.3762 15.09854395549170
HXMT (HUIYAN)           
1 42758U 17034A   26048.69989801  .00005750  00000+0  29247-3 0  9994
2 42758  43.0144 127.7846 0030577 109.0792 251.3372 15.17202222479501
CZ-2C R/B               
1 43521U 18054D   26048.86737663  .00613187  17683-3  84550-3 0  9998
2 43521  35.1266  78.1228 0011460 119.4173 240.7714 16.04899196425713
SAOCOM 1A               
1 43641U 18076A   26048.84488780  .00000110  00000+0  20355-4 0  9997
2 43641  97.8870 237.2983 0001345  79.7248 280.4117 14.82144964398425
H-2A R/B                
1 43682U 18084L   26048.53679383  .00017879  00000+0  43854-3 0  9996
2 43682  98.8746 261.6317 0026384  92.9332 267.4929 15.40439677402678
SAOCOM 1B               
1 46265U 20059A   26048.80863654  .00001089  00000+0  14337-3 0  9997
2 46265  97.8867 236.3603 0001477  85.9776 274.1606 14.82150716295809
CSS (TIANHE)            
1 48274U 21035A   26048.80831589  .00024555  00000+0  30059-3 0  9998
2 48274  41.4680 329.0534 0004278 128.7072 231.4150 15.59796584274507
COSMOS 2550             
1 48865U 21056A   26048.88985123 -.00000064  00000+0  38973-5 0  9994
2 48865  67.1425 100.8242 0008302 270.0807  89.9396 15.33831390260426
CZ-2C R/B               
1 52794U 22058K   26048.44320700  .00036619  00000+0  56381-3 0  9994
2 52794  50.1884  62.3184 0042110 114.6971 245.8392 15.52770409206984
