CCSDS_OMM_VERS = 2.0
CREATION_DATE  = 
ORIGINATOR     = 

OBJECT_NAME    = SL-4 R/B
OBJECT_ID      = 2014-021B
CENTER_NAME    = EARTH
REF_FRAME      = TEME
TIME_SYSTEM    = UTC
MEAN_ELEMENT_THEORY = SGP/SGP4

EPOCH          = 2026-02-17T10:21:29.013984
MEAN_MOTION    = 15.38479654
ECCENTRICITY   = .00988942
INCLINATION    = 51.6060
RA_OF_ASC_NODE = 76.0523
ARG_OF_PERICENTER = 29.1592
MEAN_ANOMALY   = 331.4863

EPHEMERIS_TYPE = 0
CLASSIFICATION_TYPE = U
NORAD_CAT_ID   = 39679
ELEMENT_SET_NO = 999
REV_AT_EPOCH   = 65315
BSTAR          = .3160578E-3
MEAN_MOTION_DOT = .14008E-3
MEAN_MOTION_DDOT = 0

CCSDS_OMM_VERS = 2.0
CREATION_DATE  = 
ORIGINATOR     = 

OBJECT_NAME    = ALOS-2
OBJECT_ID      = 2014-029A
CENTER_NAME    = EARTH
REF_FRAME      = TEME
TIME_SYSTEM    = UTC
MEAN_ELEMENT_THEORY = SGP/SGP4

EPOCH          = 2026-02-17T20:02:09.498624
MEAN_MOTION    = 14.79469369
ECCENTRICITY   = .0001573
INCLINATION    = 97.9212
RA_OF_ASC_NODE = 147.7185
ARG_OF_PERICENTER = 100.6444
MEAN_ANOMALY   = 259.4944

EPHEMERIS_TYPE = 0
CLASSIFICATION_TYPE = U
NORAD_CAT_ID   = 39766
ELEMENT_SET_NO = 999
REV_AT_EPOCH   = 63393
BSTAR          = .94025E-4
MEAN_MOTION_DOT = .651E-5
MEAN_MOTION_DDOT = 0

CCSDS_OMM_VERS = 2.0
CREATION_DATE  = 
ORIGINATOR     = 

OBJECT_NAME    = YAOGAN-29
OBJECT_ID      = 2015-069A
CENTER_NAME    = EARTH
REF_FRAME      = TEME
TIME_SYSTEM    = UTC
MEAN_ELEMENT_THEORY = SGP/SGP4

EPOCH          = 2026-02-17T21:21:38.806272
MEAN_MOTION    = 14.82971003
ECCENTRICITY   = .000275
INCLINATION    = 98.0164
RA_OF_ASC_NODE = 77.2642
ARG_OF_PERICENTER = 69.3779
MEAN_ANOMALY   = 290.7728

EPHEMERIS_TYPE = 0
CLASSIFICATION_TYPE = U
NORAD_CAT_ID   = 41038
ELEMENT_SET_NO = 999
REV_AT_EPOCH   = 55294
BSTAR          = .51964E-4
MEAN_MOTION_DOT = .368E-5
MEAN_MOTION_DDOT = 0

CCSDS_OMM_VERS = 2.0
CREATION_DATE  = 
ORIGINATOR     = 

OBJECT_NAME    = ASTRO-H (HITOMI)
OBJECT_ID      = 2016-012A
CENTER_NAME    = EARTH
REF_FRAME      = TEME
TIME_SYSTEM    = UTC
MEAN_ELEMENT_THEORY = SGP/SGP4

EPOCH          = 2026-02-17T11:19:18.006816
MEAN_MOTION    = 15.09854395
ECCENTRICITY   = .00098764
INCLINATION    = 30.9990
RA_OF_ASC_NODE = 127.0023
ARG_OF_PERICENTER = 129.7747
MEAN_ANOMALY   = 230.3762

EPHEMERIS_TYPE = 0
CLASSIFICATION_TYPE = U
NORAD_CAT_ID   = 41337
ELEMENT_SET_NO = 999
REV_AT_EPOCH   = 54917
BSTAR          = .21002085E-3
MEAN_MOTION_DOT = .3581E-4
MEAN_MOTION_DDOT = 0

CCSDS_OMM_VERS = 2.0
CREATION_DATE  = 
ORIGINATOR     = 

OBJECT_NAME    = HXMT (HUIYAN)
OBJECT_ID      = 2017-034A
CENTER_NAME    = EARTH
REF_FRAME      = TEME
TIME_SYSTEM    = UTC
MEAN_ELEMENT_THEORY = SGP/SGP4

EPOCH          = 2026-02-17T16:47:51.188064
MEAN_MOTION    = 15.17202222
ECCENTRICITY   = .0030577
INCLINATION    = 43.0144
RA_OF_ASC_NODE = 127.7846
ARG_OF_PERICENTER = 109.0792
MEAN_ANOMALY   = 251.3372

EPHEMERIS_TYPE = 0
CLASSIFICATION_TYPE = U
NORAD_CAT_ID   = 42758
ELEMENT_SET_NO = 999
REV_AT_EPOCH   = 47950
BSTAR          = .29247E-3
MEAN_MOTION_DOT = .575E-4
MEAN_MOTION_DDOT = 0

CCSDS_OMM_VERS = 2.0
CREATION_DATE  = 
ORIGINATOR     = 

OBJECT_NAME    = CZ-2C R/B
OBJECT_ID      = 2018-054D
CENTER_NAME    = EARTH
REF_FRAME      = TEME
TIME_SYSTEM    = UTC
MEAN_ELEMENT_THEORY = SGP/SGP4

EPOCH          = 2026-02-17T20:49:01.340832
MEAN_MOTION    = 16.04899196
ECCENTRICITY   = .001146
INCLINATION    = 35.1266
RA_OF_ASC_NODE = 78.1228
ARG_OF_PERICENTER = 119.4173
MEAN_ANOMALY   = 240.7714

EPHEMERIS_TYPE = 0
CLASSIFICATION_TYPE = U
NORAD_CAT_ID   = 43521
ELEMENT_SET_NO = 999
REV_AT_EPOCH   = 42571
BSTAR          = .8455E-3
MEAN_MOTION_DOT = .613187E-2
MEAN_MOTION_DDOT = .17683E-3

CCSDS_OMM_VERS = 2.0
CREATION_DATE  = 
ORIGINATOR     = 

OBJECT_NAME    = SAOCOM 1A
OBJECT_ID      = 2018-076A
CENTER_NAME    = EARTH
REF_FRAME      = TEME
TIME_SYSTEM    = UTC
MEAN_ELEMENT_THEORY = SGP/SGP4

EPOCH          = 2026-02-17T20:16:38.305920
MEAN_MOTION    = 14.82144964
ECCENTRICITY   = .0001345
INCLINATION    = 97.8870
RA_OF_ASC_NODE = 237.2983
ARG_OF_PERICENTER = 79.7248
MEAN_ANOMALY   = 280.4117

EPHEMERIS_TYPE = 0
CLASSIFICATION_TYPE = U
NORAD_CAT_ID   = 43641
ELEMENT_SET_NO = 999
REV_AT_EPOCH   = 39842
BSTAR          = .20355E-4
MEAN_MOTION_DOT = .11E-5
MEAN_MOTION_DDOT = 0

CCSDS_OMM_VERS = 2.0
CREATION_DATE  = 
ORIGINATOR     = 

OBJECT_NAME    = H-2A R/B
OBJECT_ID      = 2018-084L
CENTER_NAME    = EARTH
REF_FRAME      = TEME
TIME_SYSTEM    = UTC
MEAN_ELEMENT_THEORY = SGP/SGP4

EPOCH          = 2026-02-17T12:52:58.986912
MEAN_MOTION    = 15.40439677
ECCENTRICITY   = .0026384
INCLINATION    = 98.8746
RA_OF_ASC_NODE = 261.6317
ARG_OF_PERICENTER = 92.9332
MEAN_ANOMALY   = 267.4929

EPHEMERIS_TYPE = 0
CLASSIFICATION_TYPE = U
NORAD_CAT_ID   = 43682
ELEMENT_SET_NO = 999
REV_AT_EPOCH   = 40267
BSTAR          = .43854E-3
MEAN_MOTION_DOT = .17879E-3
MEAN_MOTION_DDOT = 0

CCSDS_OMM_VERS = 2.0
CREATION_DATE  = 
ORIGINATOR     = 

OBJECT_NAME    = SAOCOM 1B
OBJECT_ID      = 2020-059A
CENTER_NAME    = EARTH
REF_FRAME      = TEME
TIME_SYSTEM    = UTC
MEAN_ELEMENT_THEORY = SGP/SGP4

EPOCH          = 2026-02-17T19:24:26.197056
MEAN_MOTION    = 14.82150716
ECCENTRICITY   = .0001477
INCLINATION    = 97.8867
RA_OF_ASC_NODE = 236.3603
ARG_OF_PERICENTER = 85.9776
MEAN_ANOMALY   = 274.1606

EPHEMERIS_TYPE = 0
CLASSIFICATION_TYPE = U
NORAD_CAT_ID   = 46265
ELEMENT_SET_NO = 999
REV_AT_EPOCH   = 29580
BSTAR          = .14337E-3
MEAN_MOTION_DOT = .1089E-4
MEAN_MOTION_DDOT = 0

CCSDS_OMM_VERS = 2.0
CREATION_DATE  = 
ORIGINATOR     = 

OBJECT_NAME    = CSS (TIANHE)
OBJECT_ID      = 2021-035A
CENTER_NAME    = EARTH
REF_FRAME      = TEME
TIME_SYSTEM    = UTC
MEAN_ELEMENT_THEORY = SGP/SGP4

EPOCH          = 2026-02-17T19:23:58.492896
MEAN_MOTION    = 15.59796584
ECCENTRICITY   = .0004278
INCLINATION    = 41.4680
RA_OF_ASC_NODE = 329.0534
ARG_OF_PERICENTER = 128.7072
MEAN_ANOMALY   = 231.4150

EPHEMERIS_TYPE = 0
CLASSIFICATION_TYPE = U
NORAD_CAT_ID   = 48274
ELEMENT_SET_NO = 999
REV_AT_EPOCH   = 27450
BSTAR          = .30059E-3
MEAN_MOTION_DOT = .24555E-3
MEAN_MOTION_DDOT = 0

CCSDS_OMM_VERS = 2.0
CREATION_DATE  = 
ORIGINATOR     = 

OBJECT_NAME    = COSMOS 2550
OBJECT_ID      = 2021-056A
CENTER_NAME    = EARTH
REF_FRAME      = TEME
TIME_SYSTEM    = UTC
MEAN_ELEMENT_THEORY = SGP/SGP4

EPOCH          = 2026-02-17T21:21:23.146272
MEAN_MOTION    = 15.33831390
ECCENTRICITY   = .0008302
INCLINATION    = 67.1425
RA_OF_ASC_NODE = 100.8242
ARG_OF_PERICENTER = 270.0807
MEAN_ANOMALY   = 89.9396

EPHEMERIS_TYPE = 0
CLASSIFICATION_TYPE = U
NORAD_CAT_ID   = 48865
ELEMENT_SET_NO = 999
REV_AT_EPOCH   = 26042
BSTAR          = .38973E-5
MEAN_MOTION_DOT = -.64E-6
MEAN_MOTION_DDOT = 0

CCSDS_OMM_VERS = 2.0
CREATION_DATE  = 
ORIGINATOR     = 

OBJECT_NAME    = CZ-2C R/B
OBJECT_ID      = 2022-058K
CENTER_NAME    = EARTH
REF_FRAME      = TEME
TIME_SYSTEM    = UTC
MEAN_ELEMENT_THEORY = SGP/SGP4

EPOCH          = 2026-02-17T10:38:13.084800
MEAN_MOTION    = 15.52770409
ECCENTRICITY   = .00421109
INCLINATION    = 50.1884
RA_OF_ASC_NODE = 62.3184
ARG_OF_PERICENTER = 114.6971
MEAN_ANOMALY   = 245.8392

EPHEMERIS_TYPE = 0
CLASSIFICATION_TYPE = U
NORAD_CAT_ID   = 52794
ELEMENT_SET_NO = 999
REV_AT_EPOCH   = 20698
BSTAR          = .56381122E-3
MEAN_MOTION_DOT = .36619E-3
MEAN_MOTION_DDOT = 0

